KUIPER-00517            
1 69600U 26140J   26199.30243970  .00011707  00000+0  30968-3 0  9993
2 69600  51.8751 248.0169 0010544 304.4615  55.5376 15.38798272  6028
KUIPER-00520            
1 69601U 26140K   26199.84896489  .00021385  00000+0  57687-3 0  9992
2 69601  51.8801 245.6872 0007314  12.9646 347.1528 15.37714213  6105
KUIPER-00522            
1 69602U 26140L   26199.29953975  .00015137  00000+0  39892-3 0  9992
2 69602  51.8786 248.0003 0012639 273.7613  86.1929 15.38644003  6024
KUIPER-00528            
1 69603U 26140M   26199.85203186  .00011462  00000+0  31663-3 0  9992
2 69603  51.8798 245.6957 0005569 354.1770   5.9151 15.37509512  6100
KUIPER-00532            
1 69604U 26140N   26198.56478153  .00013400  00000+0  37928-3 0  9992
2 69604  51.8772 252.0635 0005252  40.3376 319.7999 15.36593077  5904
KUIPER-00533            
1 69605U 26140P   26199.50951264  .00013104  00000+0  35085-3 0  9990
2 69605  51.8769 247.1560 0008751 339.4735  20.5899 15.38325303  6051
KUIPER-00534            
1 69606U 26140Q   26199.55391977  .00008038  00000+0  21598-3 0  9999
2 69606  51.8796 246.7159 0013392 280.4429  79.5049 15.38769095  6065
KUIPER-00537            
1 69607U 26140R   26199.83045878 -.00025134  00000+0 -74188-3 0  9998
2 69607  51.8783 246.2950 0008640  63.3042 296.8827 15.34039597  6099
KUIPER-00538            
1 69608U 26140S   26199.52134474  .00012310  00000+0  33616-3 0  9997
2 69608  51.8820 247.2390 0007169 349.2529  10.8304 15.37785999  6059
KUIPER-00540            
1 69609U 26140T   26199.14481239  .00016004  00000+0  44459-3 0  9991
2 69609  51.8798 249.2142 0006872  33.6098 326.5324 15.37015172  5996
KUIPER-00541            
1 69610U 26140U   26199.57403692  .00007592  00000+0  20826-3 0  9991
2 69610  51.8801 246.8491 0008174 331.9937  28.0609 15.38258687  6066
KUIPER-00542            
1 69611U 26140V   26199.57288139  .00006150  00000+0  17032-3 0  9993
2 69611  51.8769 246.8292 0007779 318.3935  41.6460 15.38332559  6063
KUIPER-00543            
1 69612U 26140W   26199.86491904  .00014459  00000+0  40427-3 0  9997
2 69612  51.8776 245.7737 0008570  50.9625 309.2123 15.36887654  6102
KUIPER-00544            
1 69613U 26140X   26199.51263345  .00012190  00000+0  32833-3 0  9998
2 69613  51.8778 247.1738 0007013 333.8348  26.2283 15.38223897  6050
KUIPER-00546            
1 69614U 26140Y   26199.55634766  .00011534  00000+0  31198-3 0  9996
2 69614  51.8774 246.7233 0014345 278.7620  81.1743 15.38081367  6064
KUIPER-00547            
1 69615U 26140Z   26199.57244632  .00004375  00000+0  12610-3 0  9991
2 69615  51.8811 246.8374 0010857 303.5950  56.4000 15.37835748  6061
