{"fetched_at":"2026-07-19T07:04:47.356Z","source":"https://celestrak.org/NORAD/elements/gp.php?GROUP=kuiper&FORMAT=JSON","constellation":"kuiper","records":[{"OBJECT_NAME":"KUIPER-00517","OBJECT_ID":"2026-140J","EPOCH":"2026-07-18T07:15:30.790080","CLASSIFICATION_TYPE":"U","MEAN_MOTION":15.38798272,"ECCENTRICITY":0.00105448,"INCLINATION":51.8751,"RA_OF_ASC_NODE":248.0169,"ARG_OF_PERICENTER":304.4615,"MEAN_ANOMALY":55.5376,"EPHEMERIS_TYPE":0,"NORAD_CAT_ID":69600,"ELEMENT_SET_NO":999,"REV_AT_EPOCH":602,"BSTAR":0.00030968485,"MEAN_MOTION_DOT":0.00011707,"MEAN_MOTION_DDOT":0},{"OBJECT_NAME":"KUIPER-00520","OBJECT_ID":"2026-140K","EPOCH":"2026-07-18T20:22:30.565632","CLASSIFICATION_TYPE":"U","MEAN_MOTION":15.37714213,"ECCENTRICITY":0.0007314,"INCLINATION":51.8801,"RA_OF_ASC_NODE":245.6872,"ARG_OF_PERICENTER":12.9646,"MEAN_ANOMALY":347.1528,"EPHEMERIS_TYPE":0,"NORAD_CAT_ID":69601,"ELEMENT_SET_NO":999,"REV_AT_EPOCH":610,"BSTAR":0.00057687,"MEAN_MOTION_DOT":0.00021385,"MEAN_MOTION_DDOT":0},{"OBJECT_NAME":"KUIPER-00522","OBJECT_ID":"2026-140L","EPOCH":"2026-07-18T07:11:20.234400","CLASSIFICATION_TYPE":"U","MEAN_MOTION":15.38644003,"ECCENTRICITY":0.00126396,"INCLINATION":51.8786,"RA_OF_ASC_NODE":248.0003,"ARG_OF_PERICENTER":273.7613,"MEAN_ANOMALY":86.1929,"EPHEMERIS_TYPE":0,"NORAD_CAT_ID":69602,"ELEMENT_SET_NO":999,"REV_AT_EPOCH":602,"BSTAR":0.00039891619,"MEAN_MOTION_DOT":0.00015137,"MEAN_MOTION_DDOT":0},{"OBJECT_NAME":"KUIPER-00528","OBJECT_ID":"2026-140M","EPOCH":"2026-07-18T20:26:55.551840","CLASSIFICATION_TYPE":"U","MEAN_MOTION":15.37509512,"ECCENTRICITY":0.000557,"INCLINATION":51.8798,"RA_OF_ASC_NODE":245.6957,"ARG_OF_PERICENTER":354.177,"MEAN_ANOMALY":5.9151,"EPHEMERIS_TYPE":0,"NORAD_CAT_ID":69603,"ELEMENT_SET_NO":999,"REV_AT_EPOCH":610,"BSTAR":0.00031663,"MEAN_MOTION_DOT":0.00011462,"MEAN_MOTION_DDOT":0},{"OBJECT_NAME":"KUIPER-00532","OBJECT_ID":"2026-140N","EPOCH":"2026-07-17T13:33:17.124192","CLASSIFICATION_TYPE":"U","MEAN_MOTION":15.36593077,"ECCENTRICITY":0.0005252,"INCLINATION":51.8772,"RA_OF_ASC_NODE":252.0635,"ARG_OF_PERICENTER":40.3376,"MEAN_ANOMALY":319.7999,"EPHEMERIS_TYPE":0,"NORAD_CAT_ID":69604,"ELEMENT_SET_NO":999,"REV_AT_EPOCH":590,"BSTAR":0.00037928,"MEAN_MOTION_DOT":0.000134,"MEAN_MOTION_DDOT":0},{"OBJECT_NAME":"KUIPER-00533","OBJECT_ID":"2026-140P","EPOCH":"2026-07-18T12:13:41.892096","CLASSIFICATION_TYPE":"U","MEAN_MOTION":15.38325303,"ECCENTRICITY":0.00087517,"INCLINATION":51.8769,"RA_OF_ASC_NODE":247.156,"ARG_OF_PERICENTER":339.4735,"MEAN_ANOMALY":20.5899,"EPHEMERIS_TYPE":0,"NORAD_CAT_ID":69605,"ELEMENT_SET_NO":999,"REV_AT_EPOCH":605,"BSTAR":0.00035084676,"MEAN_MOTION_DOT":0.00013104,"MEAN_MOTION_DDOT":0},{"OBJECT_NAME":"KUIPER-00534","OBJECT_ID":"2026-140Q","EPOCH":"2026-07-18T13:17:38.668128","CLASSIFICATION_TYPE":"U","MEAN_MOTION":15.38769095,"ECCENTRICITY":0.0013392,"INCLINATION":51.8796,"RA_OF_ASC_NODE":246.7159,"ARG_OF_PERICENTER":280.4429,"MEAN_ANOMALY":79.5049,"EPHEMERIS_TYPE":0,"NORAD_CAT_ID":69606,"ELEMENT_SET_NO":999,"REV_AT_EPOCH":606,"BSTAR":0.00021598,"MEAN_MOTION_DOT":0.00008038,"MEAN_MOTION_DDOT":0},{"OBJECT_NAME":"KUIPER-00537","OBJECT_ID":"2026-140R","EPOCH":"2026-07-18T19:55:51.637728","CLASSIFICATION_TYPE":"U","MEAN_MOTION":15.34039597,"ECCENTRICITY":0.0008641,"INCLINATION":51.8783,"RA_OF_ASC_NODE":246.295,"ARG_OF_PERICENTER":63.3042,"MEAN_ANOMALY":296.8827,"EPHEMERIS_TYPE":0,"NORAD_CAT_ID":69607,"ELEMENT_SET_NO":999,"REV_AT_EPOCH":609,"BSTAR":-0.00074188,"MEAN_MOTION_DOT":-0.00025134,"MEAN_MOTION_DDOT":0},{"OBJECT_NAME":"KUIPER-00538","OBJECT_ID":"2026-140S","EPOCH":"2026-07-18T12:30:44.185536","CLASSIFICATION_TYPE":"U","MEAN_MOTION":15.37785999,"ECCENTRICITY":0.00071692,"INCLINATION":51.882,"RA_OF_ASC_NODE":247.239,"ARG_OF_PERICENTER":349.2529,"MEAN_ANOMALY":10.8304,"EPHEMERIS_TYPE":0,"NORAD_CAT_ID":69608,"ELEMENT_SET_NO":999,"REV_AT_EPOCH":605,"BSTAR":0.0003361594,"MEAN_MOTION_DOT":0.0001231,"MEAN_MOTION_DDOT":0},{"OBJECT_NAME":"KUIPER-00540","OBJECT_ID":"2026-140T","EPOCH":"2026-07-18T03:28:31.790496","CLASSIFICATION_TYPE":"U","MEAN_MOTION":15.37015172,"ECCENTRICITY":0.00068724,"INCLINATION":51.8798,"RA_OF_ASC_NODE":249.2142,"ARG_OF_PERICENTER":33.6098,"MEAN_ANOMALY":326.5324,"EPHEMERIS_TYPE":0,"NORAD_CAT_ID":69609,"ELEMENT_SET_NO":999,"REV_AT_EPOCH":599,"BSTAR":0.0004445867,"MEAN_MOTION_DOT":0.00016004,"MEAN_MOTION_DDOT":0},{"OBJECT_NAME":"KUIPER-00541","OBJECT_ID":"2026-140U","EPOCH":"2026-07-18T13:46:36.789888","CLASSIFICATION_TYPE":"U","MEAN_MOTION":15.38258687,"ECCENTRICITY":0.0008174,"INCLINATION":51.8801,"RA_OF_ASC_NODE":246.8491,"ARG_OF_PERICENTER":331.9937,"MEAN_ANOMALY":28.0609,"EPHEMERIS_TYPE":0,"NORAD_CAT_ID":69610,"ELEMENT_SET_NO":999,"REV_AT_EPOCH":606,"BSTAR":0.00020826,"MEAN_MOTION_DOT":0.00007592,"MEAN_MOTION_DDOT":0},{"OBJECT_NAME":"KUIPER-00542","OBJECT_ID":"2026-140V","EPOCH":"2026-07-18T13:44:56.952096","CLASSIFICATION_TYPE":"U","MEAN_MOTION":15.38332559,"ECCENTRICITY":0.0007779,"INCLINATION":51.8769,"RA_OF_ASC_NODE":246.8292,"ARG_OF_PERICENTER":318.3935,"MEAN_ANOMALY":41.646,"EPHEMERIS_TYPE":0,"NORAD_CAT_ID":69611,"ELEMENT_SET_NO":999,"REV_AT_EPOCH":606,"BSTAR":0.00017032,"MEAN_MOTION_DOT":0.0000615,"MEAN_MOTION_DDOT":0},{"OBJECT_NAME":"KUIPER-00543","OBJECT_ID":"2026-140W","EPOCH":"2026-07-18T20:45:29.005056","CLASSIFICATION_TYPE":"U","MEAN_MOTION":15.36887654,"ECCENTRICITY":0.0008571,"INCLINATION":51.8776,"RA_OF_ASC_NODE":245.7737,"ARG_OF_PERICENTER":50.9625,"MEAN_ANOMALY":309.2123,"EPHEMERIS_TYPE":0,"NORAD_CAT_ID":69612,"ELEMENT_SET_NO":999,"REV_AT_EPOCH":610,"BSTAR":0.00040427,"MEAN_MOTION_DOT":0.00014459,"MEAN_MOTION_DDOT":0},{"OBJECT_NAME":"KUIPER-00544","OBJECT_ID":"2026-140X","EPOCH":"2026-07-18T12:18:11.530080","CLASSIFICATION_TYPE":"U","MEAN_MOTION":15.38223897,"ECCENTRICITY":0.00070135,"INCLINATION":51.8778,"RA_OF_ASC_NODE":247.1738,"ARG_OF_PERICENTER":333.8348,"MEAN_ANOMALY":26.2283,"EPHEMERIS_TYPE":0,"NORAD_CAT_ID":69613,"ELEMENT_SET_NO":999,"REV_AT_EPOCH":605,"BSTAR":0.0003283272,"MEAN_MOTION_DOT":0.0001219,"MEAN_MOTION_DDOT":0},{"OBJECT_NAME":"KUIPER-00546","OBJECT_ID":"2026-140Y","EPOCH":"2026-07-18T13:21:08.437824","CLASSIFICATION_TYPE":"U","MEAN_MOTION":15.38081367,"ECCENTRICITY":0.0014345,"INCLINATION":51.8774,"RA_OF_ASC_NODE":246.7233,"ARG_OF_PERICENTER":278.762,"MEAN_ANOMALY":81.1743,"EPHEMERIS_TYPE":0,"NORAD_CAT_ID":69614,"ELEMENT_SET_NO":999,"REV_AT_EPOCH":606,"BSTAR":0.00031198,"MEAN_MOTION_DOT":0.00011534,"MEAN_MOTION_DDOT":0},{"OBJECT_NAME":"KUIPER-00547","OBJECT_ID":"2026-140Z","EPOCH":"2026-07-18T13:44:19.362048","CLASSIFICATION_TYPE":"U","MEAN_MOTION":15.37835748,"ECCENTRICITY":0.0010857,"INCLINATION":51.8811,"RA_OF_ASC_NODE":246.8374,"ARG_OF_PERICENTER":303.595,"MEAN_ANOMALY":56.4,"EPHEMERIS_TYPE":0,"NORAD_CAT_ID":69615,"ELEMENT_SET_NO":999,"REV_AT_EPOCH":606,"BSTAR":0.0001261,"MEAN_MOTION_DOT":0.00004375,"MEAN_MOTION_DDOT":0}]}
